start=new Date('2023-06-13T00:00:00.000Z').valueOf();
sats=[{"NORAD_CAT_ID":"47548","COUNTRY_CODE":"US","APOAPSIS":"547.814","DECAY_DATE":null,"BSTAR":"0.00016405000000","RCS_SIZE":"LARGE","LAUNCH_DATE":"2021-02-04","EPHEMERIS_TYPE":"0","REV_AT_EPOCH":"13009","OBJECT_NAME":"STARLINK-1782","SEMIMAJOR_AXIS":"6925.351","TLE_LINE2":"2 47548  53.0536 184.3134 0000863  71.9182 288.1901 15.06399151130093","RA_OF_ASC_NODE":"184.3134","MEAN_ANOMALY":"288.1901","ARG_OF_PERICENTER":"71.9182","MEAN_MOTION_DOT":"0.00002163","CENTER_NAME":"EARTH","PERIAPSIS":"546.619","REF_FRAME":"TEME","TIME_SYSTEM":"UTC","MEAN_MOTION":"15.06399151","CLASSIFICATION_TYPE":"U","FILE":"3931605","ECCENTRICITY":"0.00008630","SITE":"AFETR","PERIOD":"95.592","TLE_LINE1":"1 47548U 21009A   23163.90563545  .00002163  00000-0  16405-3 0  9993","GP_ID":"233798330","ELEMENT_SET_NO":"999","OBJECT_TYPE":"PAYLOAD","OBJECT_ID":"2021-009A","MEAN_MOTION_DDOT":"0.0000000000000","INCLINATION":"53.0536","EPOCH":"2023-06-12T21:44:06.902880","MEAN_ELEMENT_THEORY":"SGP4"},{"DECAY_DATE":null,"APOAPSIS":"548.109","COUNTRY_CODE":"US","NORAD_CAT_ID":"47549","SEMIMAJOR_AXIS":"6925.344","OBJECT_NAME":"STARLINK-1806","REV_AT_EPOCH":"13007","EPHEMERIS_TYPE":"0","LAUNCH_DATE":"2021-02-04","RCS_SIZE":"LARGE","BSTAR":"0.00018295000000","ARG_OF_PERICENTER":"79.7150","MEAN_ANOMALY":"280.3986","RA_OF_ASC_NODE":"184.9257","TLE_LINE2":"2 47549  53.0529 184.9257 0001300  79.7150 280.3986 15.06401639130076","PERIAPSIS":"546.308","CENTER_NAME":"EARTH","MEAN_MOTION_DOT":"0.00002445","MEAN_MOTION":"15.06401639","TIME_SYSTEM":"UTC","REF_FRAME":"TEME","PERIOD":"95.592","TLE_LINE1":"1 47549U 21009B   23163.76925029  .00002445  00000-0  18295-3 0  9999","SITE":"AFETR","FILE":"3931605","ECCENTRICITY":"0.00013000","CLASSIFICATION_TYPE":"U","ELEMENT_SET_NO":"999","GP_ID":"233797583","MEAN_ELEMENT_THEORY":"SGP4","EPOCH":"2023-06-12T18:27:43.225056","INCLINATION":"53.0529","OBJECT_ID":"2021-009B","MEAN_MOTION_DDOT":"0.0000000000000","OBJECT_TYPE":"PAYLOAD"},{"PERIOD":"95.592","TLE_LINE1":"1 47550U 21009C   23163.31680441  .00002029  00000-0  15509-3 0  9991","ECCENTRICITY":"0.00009990","FILE":"3931287","CLASSIFICATION_TYPE":"U","SITE":"AFETR","MEAN_MOTION":"15.06397436","REF_FRAME":"TEME","TIME_SYSTEM":"UTC","INCLINATION":"53.0537","OBJECT_ID":"2021-009C","MEAN_MOTION_DDOT":"0.0000000000000","MEAN_ELEMENT_THEORY":"SGP4","EPOCH":"2023-06-12T07:36:11.901024","OBJECT_TYPE":"PAYLOAD","ELEMENT_SET_NO":"999","GP_ID":"233763535","OBJECT_NAME":"STARLINK-1909","REV_AT_EPOCH":"13014","SEMIMAJOR_AXIS":"6925.356","BSTAR":"0.00015509000000","EPHEMERIS_TYPE":"0","LAUNCH_DATE":"2021-02-04","RCS_SIZE":"LARGE","NORAD_CAT_ID":"47550","APOAPSIS":"547.913","DECAY_DATE":null,"COUNTRY_CODE":"US","CENTER_NAME":"EARTH","PERIAPSIS":"546.530","MEAN_MOTION_DOT":"0.00002029","ARG_OF_PERICENTER":"72.6664","RA_OF_ASC_NODE":"176.9581","TLE_LINE2":"2 47550  53.0537 176.9581 0000999  72.6664 287.4434 15.06397436130146","MEAN_ANOMALY":"287.4434"},{"MEAN_MOTION_DOT":"0.00002978","PERIAPSIS":"546.460","CENTER_NAME":"EARTH","MEAN_ANOMALY":"281.9521","TLE_LINE2":"2 47551  53.0536 194.8965 0001068  78.1588 281.9521 15.06404535129935","RA_OF_ASC_NODE":"194.8965","ARG_OF_PERICENTER":"78.1588","RCS_SIZE":"LARGE","LAUNCH_DATE":"2021-02-04","EPHEMERIS_TYPE":"0","BSTAR":"0.00021870000000","SEMIMAJOR_AXIS":"6925.335","REV_AT_EPOCH":"12993","OBJECT_NAME":"STARLINK-1938","COUNTRY_CODE":"US","APOAPSIS":"547.939","DECAY_DATE":null,"NORAD_CAT_ID":"47551","OBJECT_TYPE":"PAYLOAD","EPOCH":"2023-06-12T18:37:00.749568","MEAN_ELEMENT_THEORY":"SGP4","MEAN_MOTION_DDOT":"0.0000000000000","OBJECT_ID":"2021-009D","INCLINATION":"53.0536","GP_ID":"233798585","ELEMENT_SET_NO":"999","SITE":"AFETR","CLASSIFICATION_TYPE":"U","FILE":"3931605","ECCENTRICITY":"0.00010680","TLE_LINE1":"1 47551U 21009D   23163.77570312  .00002978  00000-0  21870-3 0  9998","PERIOD":"95.592","TIME_SYSTEM":"UTC","REF_FRAME":"TEME","MEAN_MOTION":"15.06404535"},{"REF_FRAME":"TEME","TIME_SYSTEM":"UTC","MEAN_MOTION":"15.06397522","CLASSIFICATION_TYPE":"U","ECCENTRICITY":"0.00009630","FILE":"3931287","SITE":"AFETR","TLE_LINE1":"1 47552U 21009E   23163.44857554  .00001609  00000-0  12687-3 0  9995","PERIOD":"95.592","GP_ID":"233762534","ELEMENT_SET_NO":"999","OBJECT_TYPE":"PAYLOAD","OBJECT_ID":"2021-009E","MEAN_MOTION_DDOT":"0.0000000000000","INCLINATION":"53.0521","EPOCH":"2023-06-12T10:45:56.926656","MEAN_ELEMENT_THEORY":"SGP4","NORAD_CAT_ID":"47552","COUNTRY_CODE":"US","DECAY_DATE":null,"APOAPSIS":"547.888","BSTAR":"0.00012687000000","RCS_SIZE":"LARGE","EPHEMERIS_TYPE":"0","LAUNCH_DATE":"2021-02-04","OBJECT_NAME":"STARLINK-1940","REV_AT_EPOCH":"13002","SEMIMAJOR_AXIS":"6925.356","TLE_LINE2":"2 47552  53.0521 186.3643 0000963  89.5196 270.5903 15.06397522130020","RA_OF_ASC_NODE":"186.3643","MEAN_ANOMALY":"270.5903","ARG_OF_PERICENTER":"89.5196","MEAN_MOTION_DOT":"0.00001609","CENTER_NAME":"EARTH","PERIAPSIS":"546.554"},{"PERIOD":"95.592","TLE_LINE1":"1 47554U 21009G   23163.85219032  .00005002  00000-0  35440-3 0  9998","SITE":"AFETR","CLASSIFICATION_TYPE":"U","ECCENTRICITY":"0.00011260","FILE":"3931605","MEAN_MOTION":"15.06403881","TIME_SYSTEM":"UTC","REF_FRAME":"TEME","EPOCH":"2023-06-12T20:27:09.243648","MEAN_ELEMENT_THEORY":"SGP4","MEAN_MOTION_DDOT":"0.0000000000000","OBJECT_ID":"2021-009G","INCLINATION":"53.0528","OBJECT_TYPE":"PAYLOAD","ELEMENT_SET_NO":"999","GP_ID":"233797084","SEMIMAJOR_AXIS":"6925.337","REV_AT_EPOCH":"12980","OBJECT_NAME":"STARLINK-1953","RCS_SIZE":"LARGE","EPHEMERIS_TYPE":"0","LAUNCH_DATE":"2021-02-04","BSTAR":"0.00035440000000","COUNTRY_CODE":"US","APOAPSIS":"547.981","DECAY_DATE":null,"NORAD_CAT_ID":"47554","PERIAPSIS":"546.422","CENTER_NAME":"EARTH","MEAN_MOTION_DOT":"0.00005002","ARG_OF_PERICENTER":"77.3445","MEAN_ANOMALY":"282.7669","TLE_LINE2":"2 47554  53.0528 204.5555 0001126  77.3445 282.7669 15.06403881129802","RA_OF_ASC_NODE":"204.5555"},{"ARG_OF_PERICENTER":"96.1440","MEAN_ANOMALY":"263.9649","TLE_LINE2":"2 47555  53.0524 196.7507 0000872  96.1440 263.9649 15.06398404129879","RA_OF_ASC_NODE":"196.7507","PERIAPSIS":"546.615","CENTER_NAME":"EARTH","MEAN_MOTION_DOT":"0.00003115","COUNTRY_CODE":"US","APOAPSIS":"547.822","DECAY_DATE":null,"NORAD_CAT_ID":"47555","SEMIMAJOR_AXIS":"6925.353","REV_AT_EPOCH":"12987","OBJECT_NAME":"STARLINK-1954","RCS_SIZE":"LARGE","LAUNCH_DATE":"2021-02-04","EPHEMERIS_TYPE":"0","BSTAR":"0.00022791000000","ELEMENT_SET_NO":"999","GP_ID":"233764035","EPOCH":"2023-06-12T08:42:32.514048","MEAN_ELEMENT_THEORY":"SGP4","MEAN_MOTION_DDOT":"0.0000000000000","OBJECT_ID":"2021-009H","INCLINATION":"53.0524","OBJECT_TYPE":"PAYLOAD","MEAN_MOTION":"15.06398404","TIME_SYSTEM":"UTC","REF_FRAME":"TEME","PERIOD":"95.592","TLE_LINE1":"1 47555U 21009H   23163.36287632  .00003115  00000-0  22791-3 0  9994","SITE":"AFETR","CLASSIFICATION_TYPE":"U","ECCENTRICITY":"0.00008720","FILE":"3931287"},{"MEAN_MOTION_DOT":"0.00004032","PERIAPSIS":"545.860","CENTER_NAME":"EARTH","MEAN_ANOMALY":"276.0585","RA_OF_ASC_NODE":"216.8920","TLE_LINE2":"2 47556  53.0523 216.8920 0001935  84.0624 276.0585 15.06404327129587","ARG_OF_PERICENTER":"84.0624","EPHEMERIS_TYPE":"0","LAUNCH_DATE":"2021-02-04","RCS_SIZE":"LARGE","BSTAR":"0.00028937000000","SEMIMAJOR_AXIS":"6925.335","REV_AT_EPOCH":"12958","OBJECT_NAME":"STARLINK-1955","APOAPSIS":"548.540","DECAY_DATE":null,"COUNTRY_CODE":"US","NORAD_CAT_ID":"47556","OBJECT_TYPE":"PAYLOAD","MEAN_ELEMENT_THEORY":"SGP4","EPOCH":"2023-06-12T07:57:25.768800","INCLINATION":"53.0523","MEAN_MOTION_DDOT":"0.0000000000000","OBJECT_ID":"2021-009J","GP_ID":"233798086","ELEMENT_SET_NO":"999","SITE":"AFETR","FILE":"3931605","ECCENTRICITY":"0.00019350","CLASSIFICATION_TYPE":"U","PERIOD":"95.592","TLE_LINE1":"1 47556U 21009J   23163.33154825  .00004032  00000-0  28937-3 0  9996","TIME_SYSTEM":"UTC","REF_FRAME":"TEME","MEAN_MOTION":"15.06404327"},{"PERIOD":"95.592","TLE_LINE1":"1 47557U 21009K   23163.42738217  .00005299  00000-0  37433-3 0  9997","SITE":"AFETR","CLASSIFICATION_TYPE":"U","ECCENTRICITY":"0.00010770","FILE":"3931287","MEAN_MOTION":"15.06403080","TIME_SYSTEM":"UTC","REF_FRAME":"TEME","EPOCH":"2023-06-12T10:15:25.819488","MEAN_ELEMENT_THEORY":"SGP4","MEAN_MOTION_DDOT":"0.0000000000000","OBJECT_ID":"2021-009K","INCLINATION":"53.0522","OBJECT_TYPE":"PAYLOAD","ELEMENT_SET_NO":"999","GP_ID":"233763034","SEMIMAJOR_AXIS":"6925.339","OBJECT_NAME":"STARLINK-1956","REV_AT_EPOCH":"12960","RCS_SIZE":"LARGE","LAUNCH_DATE":"2021-02-04","EPHEMERIS_TYPE":"0","BSTAR":"0.00037433000000","COUNTRY_CODE":"US","DECAY_DATE":null,"APOAPSIS":"547.950","NORAD_CAT_ID":"47557","PERIAPSIS":"546.458","CENTER_NAME":"EARTH","MEAN_MOTION_DOT":"0.00005299","ARG_OF_PERICENTER":"67.1629","MEAN_ANOMALY":"292.9473","TLE_LINE2":"2 47557  53.0522 216.4613 0001077  67.1629 292.9473 15.06403080129607","RA_OF_ASC_NODE":"216.4613"},{"TIME_SYSTEM":"UTC","REF_FRAME":"TEME","MEAN_MOTION":"15.06392160","SITE":"AFETR","ECCENTRICITY":"0.00009480","FILE":"3931287","CLASSIFICATION_TYPE":"U","TLE_LINE1":"1 47558U 21009L   23163.34168291  .00000920  00000-0  80672-4 0  9998","PERIOD":"95.593","GP_ID":"233763284","ELEMENT_SET_NO":"999","OBJECT_TYPE":"PAYLOAD","MEAN_ELEMENT_THEORY":"SGP4","EPOCH":"2023-06-12T08:12:01.403424","INCLINATION":"53.0531","OBJECT_ID":"2021-009L","MEAN_MOTION_DDOT":"0.0000000000000","APOAPSIS":"547.894","DECAY_DATE":null,"COUNTRY_CODE":"US","NORAD_CAT_ID":"47558","EPHEMERIS_TYPE":"0","LAUNCH_DATE":"2021-02-04","RCS_SIZE":"LARGE","BSTAR":"0.00008067200000","SEMIMAJOR_AXIS":"6925.373","OBJECT_NAME":"STARLINK-1957","REV_AT_EPOCH":"13000","MEAN_ANOMALY":"264.3738","RA_OF_ASC_NODE":"186.8406","TLE_LINE2":"2 47558  53.0531 186.8406 0000948  95.7359 264.3738 15.06392160130000","ARG_OF_PERICENTER":"95.7359","MEAN_MOTION_DOT":"0.00000920","PERIAPSIS":"546.581","CENTER_NAME":"EARTH"}];
